GLOBALSTAR M024         
1 25883U 99043A   24235.74133796 -.00000010  00000+0  19475-2 0  9996
2 25883  52.0064 334.0197 0000896 345.7125 184.7435 11.10162888 81717
GLOBALSTAR M027         
1 25884U 99043B   24236.52878314  .00000002  00000+0  24818-2 0  9993
2 25884  52.0235  41.7872 0020682 229.3239 130.5757 11.04369752108390
GLOBALSTAR M054         
1 25885U 99043C   24235.74007159 -.00000072  00000+0 -25774-4 0  9991
2 25885  52.0099 220.9299 0005372  25.5298 145.7196 11.39212165 85036
GLOBALSTAR M053         
1 25886U 99043D   24235.97552501 -.00000036  00000+0  94349-3 0  9995
2 25886  51.9972 150.9158 0003537 306.5256 137.9550 11.27657856 85807
GLOBALSTAR M058         
1 25907U 99049A   24236.16819844 -.00000057  00000+0  37463-3 0  9990
2 25907  51.9919 184.9539 0002423  57.7580 302.3489 11.93180712117170
GLOBALSTAR M050         
1 25908U 99049B   24235.86237714 -.00000094  00000+0 -64945-4 0  9995
2 25908  51.9964 215.7346 0008915 156.9274 229.8170 12.07439062112158
GLOBALSTAR M033         
1 25909U 99049C   24236.36261148 -.00000096  00000+0 -44290-4 0  9993
2 25909  51.9906 106.7689 0013207  15.9510 344.1751 12.20276024132106
GLOBALSTAR M055         
1 25910U 99049D   24236.45101251 -.00000036  00000+0  49816-3 0  9994
2 25910  52.0010 131.7561 0006406 234.0052 126.0206 12.29407014131881
